NORAD_CAT_ID,OBJECT_NAME,OBJECT_TYPE,EPOCH,MEAN_MOTION,ECCENTRICITY,INCLINATION,RA_OF_ASC_NODE,ARG_OF_PERICENTER,MEAN_ANOMALY,BSTAR,MEAN_MOTION_DOT,MEAN_MOTION_DDOT,TLE_LINE0,TLE_LINE1,TLE_LINE2,SEMIMAJOR_AXIS,PERIOD,APOGEE,PERIGEE,DECAYED
51989.0,STARLINK-3642,PAYLOAD,2024-08-11 22:42:05,15.08862292,0.0001446,53.2167,99.2512,91.0243,269.0915,0.001042,0.00016344,0.0,0 STARLINK-3642,1 51989U 22025AK  24224.94590227  .00016344  00000-0  10420-2 0  9992,2 51989  53.2167  99.2512 0001446  91.0243 269.0915 15.08862292134294,6917.812,95.436,540.678,538.677,0.0
51989.0,STARLINK-3642,PAYLOAD,2024-08-12 01:52:52,15.08874233,0.0001272,53.2155,98.656,84.4009,275.7128,0.0019865,0.00031498,0.0,0 STARLINK-3642,1 51989U 22025AK  24225.07838112  .00031498  00000-0  19865-2 0  9994,2 51989  53.2155  98.6560 0001272  84.4009 275.7128 15.08874233135413,6917.776,95.435,540.521,538.761,0.0
51989.0,STARLINK-3642,PAYLOAD,2024-08-12 08:14:25,15.08856184,0.0001856,53.2162,97.4604,77.9828,282.1372,4.9899e-05,5.06e-06,0.0,0 STARLINK-3642,1 51989U 22025AK  24225.34334890  .00000506  00000-0  49899-4 0  9996,2 51989  53.2162  97.4604 0001856  77.9828 282.1372 15.08856184135453,6917.831,95.437,540.98,538.412,0.0
51989.0,STARLINK-3642,PAYLOAD,2024-08-12 14:35:57,15.08844266,0.0001303,53.2158,96.2738,89.9852,270.129,0.0030081,0.00047917,0.0,0 STARLINK-3642,1 51989U 22025AK  24225.60830356  .00047917  00000-0  30081-2 0  9991,2 51989  53.2158  96.2738 0001303  89.9852 270.1290 15.08844266134396,6917.867,95.437,540.634,538.831,0.0
51989.0,STARLINK-3642,PAYLOAD,2024-08-12 22:32:52,15.08907668,0.0001167,53.2155,94.7896,95.4144,264.6981,0.0042451,0.00068052,0.0,0 STARLINK-3642,1 51989U 22025AK  24225.93949350  .00068052  00000-0  42451-2 0  9999,2 51989  53.2155  94.7896 0001167  95.4144 264.6981 15.08907668134442,6917.674,95.433,540.346,538.731,0.0
51989.0,STARLINK-3642,PAYLOAD,2024-08-13 01:43:37,15.08929531,0.0001228,53.2157,94.1941,92.1182,267.995,0.0048049,0.0007721,0.0,0 STARLINK-3642,1 51989U 22025AK  24226.07196702  .00077210  00000-0  48049-2 0  9995,2 51989  53.2157  94.1941 0001228  92.1182 267.9950 15.08929531135562,6917.607,95.432,540.321,538.622,0.0
51989.0,STARLINK-3642,PAYLOAD,2024-08-13 08:05:10,15.08864359,0.0002266,53.2151,93.0027,77.3263,282.7982,0.0001493,2.09e-05,0.0,0 STARLINK-3642,1 51989U 22025AK  24226.33693159  .00002090  00000-0  14930-3 0  9999,2 51989  53.2151  93.0027 0002266  77.3263 282.7982 15.08864359135608,6917.806,95.436,541.239,538.103,0.0
51989.0,STARLINK-3642,PAYLOAD,2024-08-13 17:37:30,15.08808208,0.000149,53.2158,91.2188,89.541,270.5753,-0.00052007,-8.548e-05,0.0,0 STARLINK-3642,1 51989U 22025AK  24226.73438290 -.00008548  00000-0 -52007-3 0  9999,2 51989  53.2158  91.2188 0001490  89.5410 270.5753 15.08808208135668,6917.978,95.44,540.873,538.812,0.0
51989.0,STARLINK-3642,PAYLOAD,2024-08-14 07:55:57,15.08894934,0.0001009,53.2149,88.5439,83.7647,276.3461,0.0030513,0.00048682,0.0,0 STARLINK-3642,1 51989U 22025AK  24227.33053183  .00048682  00000-0  30513-2 0  9998,2 51989  53.2149  88.5439 0001009  83.7647 276.3461 15.08894934135751,6917.712,95.434,540.275,538.879,0.0
51989.0,STARLINK-3642,PAYLOAD,2024-08-14 19:03:40,15.08856904,0.0001166,53.2143,86.4633,104.5727,255.5395,0.00046834,7.177e-05,0.0,0 STARLINK-3642,1 51989U 22025AK  24227.79421394  .00007177  00000-0  46834-3 0  9999,2 51989  53.2143  86.4633 0001166 104.5727 255.5395 15.08856904135821,6917.829,95.436,540.5,538.887,0.0
51989.0,STARLINK-3642,PAYLOAD,2024-08-14 22:14:26,15.08836451,0.0001466,53.2158,85.8675,96.1563,263.9596,-0.00056283,-9.233e-05,0.0,0 STARLINK-3642,1 51989U 22025AK  24227.92669835 -.00009233  00000-0 -56283-3 0  9994,2 51989  53.2158  85.8675 0001466  96.1563 263.9596 15.08836451134744,6917.891,95.438,540.77,538.742,0.0
51989.0,STARLINK-3642,PAYLOAD,2024-08-15 07:46:46,15.08815237,0.000157,53.2159,84.0831,90.0066,270.1106,0.00086997,0.00013575,0.0,0 STARLINK-3642,1 51989U 22025AK  24228.32414641  .00013575  00000-0  86997-3 0  9999,2 51989  53.2159  84.0831 0001570  90.0066 270.1106 15.08815237134800,6917.956,95.439,540.907,538.735,0.0
51989.0,STARLINK-3642,PAYLOAD,2024-08-15 22:05:15,15.088141,0.0001244,53.215,81.4072,94.8114,265.302,0.00031331,4.698e-05,0.0,0 STARLINK-3642,1 51989U 22025AK  24228.92031652  .00004698  00000-0  31331-3 0  9990,2 51989  53.2150  81.4072 0001244  94.8114 265.3020 15.08814100134891,6917.96,95.439,540.685,538.964,0.0
51989.0,STARLINK-3642,PAYLOAD,2024-08-16 23:31:26,15.08829936,0.0001168,53.2162,76.6496,91.6795,268.4331,0.00053911,8.3e-05,0.0,0 STARLINK-3642,1 51989U 22025AK  24229.98016925  .00008300  00000-0  53911-3 0  9995,2 51989  53.2162  76.6496 0001168  91.6795 268.4331 15.08829936136158,6917.911,95.438,540.584,538.968,0.0
51989.0,STARLINK-3642,PAYLOAD,2024-08-17 23:22:12,15.08867504,8.82e-05,53.2165,72.1877,117.9746,242.1336,0.00062186,9.63e-05,0.0,0 STARLINK-3642,1 51989U 22025AK  24230.97375492  .00009630  00000-0  62186-3 0  9994,2 51989  53.2165  72.1877 0000882 117.9746 242.1336 15.08867504136309,6917.796,95.436,540.271,539.051,0.0
51989.0,STARLINK-3642,PAYLOAD,2024-08-18 20:02:12,15.08856764,0.0001363,53.2161,68.3189,101.3679,258.7466,7.2056e-05,8.6e-06,0.0,0 STARLINK-3642,1 51989U 22025AK  24231.83487030  .00000860  00000-0  72056-4 0  9996,2 51989  53.2161  68.3189 0001363 101.3679 258.7466 15.08856764136432,6917.829,95.436,540.637,538.751,0.0
51989.0,STARLINK-3642,PAYLOAD,2024-08-19 13:31:27,15.08839399,0.0001508,53.2168,65.0505,95.5976,264.5189,5.1298e-06,-2.06e-06,0.0,0 STARLINK-3642,1 51989U 22025AK  24232.56351438 -.00000206  00000-0  51298-5 0  9990,2 51989  53.2168  65.0505 0001508  95.5976 264.5189 15.08839399136544,6917.882,95.438,540.79,538.704,0.0
51989.0,STARLINK-3642,PAYLOAD,2024-08-20 05:25:18,15.08840402,0.0001464,53.2167,62.0768,92.07,268.046,1.3384e-05,-7.5e-07,0.0,0 STARLINK-3642,1 51989U 22025AK  24233.22591396 -.00000075  00000-0  13384-4 0  9990,2 51989  53.2167  62.0768 0001464  92.0700 268.0460 15.08840402135546,6917.879,95.438,540.757,538.731,0.0
51989.0,STARLINK-3642,PAYLOAD,2024-08-20 18:08:23,15.08844064,0.0001524,53.2181,59.699,107.9478,252.168,5.5144e-05,5.9e-06,0.0,0 STARLINK-3642,1 51989U 22025AK  24233.75583076  .00000590  00000-0  55144-4 0  9995,2 51989  53.2181  59.6990 0001524 107.9478 252.1680 15.08844064136723,6917.868,95.437,540.787,538.679,0.0
51989.0,STARLINK-3642,PAYLOAD,2024-08-20 22:54:32,15.0884883,0.0001745,53.2185,58.8067,113.1227,246.9949,3.1358e-05,2.11e-06,0.0,0 STARLINK-3642,1 51989U 22025AK  24233.95454756  .00000211  00000-0  31358-4 0  9990,2 51989  53.2185  58.8067 0001745 113.1227 246.9949 15.08848830135654,6917.853,95.437,540.926,538.511,0.0
51989.0,STARLINK-3642,PAYLOAD,2024-08-21 17:59:14,15.08752819,0.0001755,53.2182,55.2333,90.8902,269.2291,0.0014139,0.00022232,0.0,0 STARLINK-3642,1 51989U 22025AK  24234.74947181  .00022232  00000-0  14139-2 0  9990,2 51989  53.2182  55.2333 0001755  90.8902 269.2291 15.08752819136874,6918.147,95.443,541.226,538.798,0.0
51989.0,STARLINK-3642,PAYLOAD,2024-08-21 21:09:59,15.08799401,0.0001263,53.2184,54.6384,95.0672,265.0464,0.00066587,0.00010314,0.0,0 STARLINK-3642,1 51989U 22025AK  24234.88193546  .00010314  00000-0  66587-3 0  9996,2 51989  53.2184  54.6384 0001263  95.0672 265.0464 15.08799401136896,6918.004,95.44,540.743,538.996,0.0
51989.0,STARLINK-3642,PAYLOAD,2024-08-21 22:45:20,15.08837616,8.65e-05,53.2181,54.3428,105.9538,254.155,3.7473e-05,3.09e-06,0.0,0 STARLINK-3642,1 51989U 22025AK  24234.94815877  .00000309  00000-0  37473-4 0  9997,2 51989  53.2181  54.3428 0000865 105.9538 254.1550 15.08837616136906,6917.888,95.438,540.351,539.154,0.0
